satname,norad_id,inclination_deg,eccentricity,mean_motion_rev_per_day,perigee_km,apogee_km,l1,l2
STARLINK-1458,45675,53.0525,0.0006954,15.4358225,430.8088021998583,440.28527396001937,1 45675U 20035U   26071.98049389  .00044338  00000+0  97410-3 0  9998,2 45675  53.0525  39.8646 0006954  90.5413 269.6389 15.43582250319361
STARLINK-1460,45676,53.1569,0.0001347,15.29351614,476.8258801405036,478.67285592805183,1 45676U 20035V   26071.33980354  .00000353  00000+0  24575-4 0  9996,2 45676  53.1569  52.6125 0001347  85.3164 274.7990 15.29351614319123
STARLINK-1392,45677,53.1583,0.0001716,15.29353484,476.56731025207955,478.92024853556904,1 45677U 20035W   26071.27096962  .00000530  00000+0  30702-4 0  9999,2 45677  53.1583  52.7878 0001716 103.5579 256.5612 15.29353484319158
STARLINK-1394,45679,53.0493,0.0003484,15.50557871,412.72940549753184,417.46293036894895,1 45679U 20035Y   26072.00002314  .00056378  00000+0  97051-3 0  9991,2 45679  53.0493  20.6765 0003484 134.0794  36.4941 15.50557871  5905
STARLINK-1402,45685,53.0485,0.0001283,15.45340379,429.5045869096548,431.2516518892935,1 45685U 20035AE  26071.24212811  .00088697  00000+0  18180-2 0  9992,2 45685  53.0485  11.2350 0001283 195.6649 164.4317 15.45340379319742
STARLINK-1404,45686,53.1616,0.0001271,15.30207219,474.32245656285704,476.06457317973764,1 45686U 20035AF  26071.30846445  .00006020  00000+0  21518-3 0  9996,2 45686  53.1616  37.5364 0001271  69.3769 290.7368 15.30207219319370
STARLINK-1413,45689,53.1625,0.0001411,15.30202818,474.23964860240903,476.17366218196094,1 45689U 20035AJ  26071.90260146  .00001859  00000+0  74869-4 0  9996,2 45689  53.1625  34.6554 0001411  89.5510 270.5652 15.30202818319389
STARLINK-1417,45693,53.0515,0.0001878,15.12797078,526.3776457164076,528.9714685372637,1 45693U 20035AN  26071.90155537  .00037025  00000+0  20910-2 0  9998,2 45693  53.0515  39.7513 0001878 236.4782 123.6030 15.12797078319388
STARLINK-1420,45695,53.0539,0.0004293,15.54352209,401.12474479879256,406.94791882148365,1 45695U 20035AQ  26071.82932502  .00110556  00000+0  16424-2 0  9992,2 45695  53.0539   7.2636 0004293 119.5152 240.6287 15.54352209319842
STARLINK-1422,45696,53.1606,0.0001386,15.30200527,474.26362151403737,476.16337027149984,1 45696U 20035AR  26071.90997500  .00002325  00000+0  90612-4 0  9998,2 45696  53.1606  34.6227 0001386 101.9670 258.1486 15.30200527319461
STARLINK-1351,45697,53.0525,0.000401,15.53122947,404.8933990120331,410.33557170329095,1 45697U 20035AS  26072.00002314  .00056705  00000+0  89046-3 0  9990,2 45697  53.0525   5.6762 0004010 139.3990 211.1448 15.53122947  5913
STARLINK-1398,45699,53.033,0.0004373,15.98452088,275.80177752332656,281.6238583741042,1 45699U 20035AU  26072.00002314  .00400339  77958-4  83769-3 0  9995,2 45699  53.0330 282.1560 0004373 231.3325   8.4754 15.98452088  6014
STARLINK-1400,45700,53.0507,0.0007974,15.51184369,407.8514621033455,418.68239308707325,1 45700U 20035AV  26071.97470911  .00101325  00000+0  16885-2 0  9991,2 45700  53.0507   7.1761 0007974 109.2206 250.9666 15.51184369319850
STARLINK-1403,45701,53.1353,0.0001794,15.24906529,489.8337884866487,492.2984585673703,1 45701U 20035AW  26072.00002314  .01709791  00000+0  62108-1 0  9995,2 45701  53.1353  21.1293 0001794  81.2426 309.6052 15.24906529  5598
STARLINK-1407,45703,53.0344,0.000987,15.60676257,379.0265714590214,392.3783905945684,1 45703U 20035AY  26071.64526082  .00140628  00000+0  16387-2 0  9995,2 45703  53.0344 301.3565 0009870 117.4355 242.7662 15.60676257320754
STARLINK-1411,45706,53.0448,0.0005007,15.62618238,376.7135233819663,383.4812192814179,1 45706U 20035BB  26070.99632727  .00092501  00000+0  10094-2 0  9994,2 45706  53.0448 330.1593 0005007 141.7805 218.3564 15.62618238320286
STARLINK-1423,45710,53.0508,0.0007844,15.53617044,400.8540786816202,411.49730843527414,1 45710U 20035BF  26072.00002314  .00058055  00000+0  89441-3 0  9995,2 45710  53.0508   6.0523 0007844 122.9977 225.8870 15.53617044  5920
STARLINK-1433,45711,53.0507,0.0007617,15.55539367,395.421856415388,405.74856182876374,1 45711U 20035BG  26071.95836083  .00110852  00000+0  15754-2 0  9996,2 45711  53.0507   5.2493 0007617 115.6943 244.4855 15.55539367319872
STARLINK-1434,45712,53.0537,0.0005496,15.27137591,480.6025114147915,488.1457836681702,1 45712U 20035BH  26071.84133080  .00052188  00000+0  19340-2 0  9994,2 45712  53.0537   5.4356 0005496 105.2978 254.8628 15.27137591319877
STARLINK-1465,45731,53.0504,0.000338,15.50609964,412.6479591632424,417.2400819331315,1 45731U 20038B   26071.80390432  .00103964  00000+0  17690-2 0  9995,2 45731  53.0504 208.2139 0003380 291.9892  68.0757 15.50609964316860
STARLINK-1471,45735,53.0467,7.33e-05,15.49066124,418.9584495779927,419.9549768163479,1 45735U 20038F   26071.54977960  .00026310  00000+0  48355-3 0  9999,2 45735  53.0467 128.3206 0000733 295.4785  64.6147 15.49066124317979
STARLINK-1480,45741,53.0509,0.0006583,15.47811628,418.6518945854905,427.60644162241533,1 45741U 20038M   26071.63638161  .00030962  00000+0  59224-3 0  9998,2 45741  53.0509 203.1611 0006583 189.9845 170.1032 15.47811628316934
STARLINK-1500,45744,53.0361,0.0001845,15.34999488,459.66020906888025,462.18382184558413,1 45744U 20038Q   26071.67290587  .00029567  00000+0  86607-3 0  9995,2 45744  53.0361 178.7557 0001845 278.9345  81.1447 15.34999488317275
STARLINK-1504,45746,53.0218,1.34e-05,15.53385583,406.7586854626479,406.9405231036435,1 45746U 20038S   26071.64643645  .00031285  00000+0  49158-3 0  9991,2 45746  53.0218 127.9182 0000134 179.5698 180.5311 15.53385583317972
STARLINK-1506,45747,53.074,0.0002369,15.2632147,485.1938684492252,488.4464851595949,1 45747U 20038T   26071.60699411  .00013027  00000+0  50742-3 0  9995,2 45747  53.0740 188.8689 0002369 251.3785 108.6956 15.26321470317138
STARLINK-1464,45751,53.0511,0.0002473,15.44490998,431.18972146381384,434.5584475462101,1 45751U 20038X   26071.60895661  .00046477  00000+0  99016-3 0  9997,2 45751  53.0511 190.7372 0002473 283.6299  76.4431 15.44490998317103
STARLINK-1477,45754,53.0486,0.0001081,15.1461422,521.4040826675055,522.8959247177054,1 45754U 20038AA  26071.73492050  .00037286  00000+0  20011-2 0  9995,2 45754  53.0486 199.1217 0001081  26.5921 333.5127 15.14614220316996
STARLINK-1478,45755,53.0495,0.0003243,15.55750371,397.7741294055513,402.17041107823025,1 45755U 20038AB  26071.71755730  .00112124  00000+0  15822-2 0  9990,2 45755  53.0495 183.2410 0003243 266.0899  93.9740 15.55750371317209
STARLINK-1484,45756,52.9961,0.0004689,16.07906956,249.48214082489267,255.70043781461663,1 45756U 20038AC  26071.94387494  .00750478  30566-3  89119-3 0  9999,2 45756  52.9961  39.5819 0004689  99.2688 260.8874 16.07906956319226
STARLINK-1493,45759,53.0519,0.000248,15.50896308,412.4233745111169,415.7923279573288,1 45759U 20038AF  26071.86606454  .00103663  00000+0  17463-2 0  9999,2 45759  53.0519 189.2482 0002480  26.3673 333.7461 15.50896308317137
STARLINK-1494,45760,53.0479,0.0005979,15.74333717,342.50715862159086,350.5485128321543,1 45760U 20038AG  26071.41788695  .00099771  00000+0  67261-3 0  9996,2 45760  53.0479 138.0507 0005979  12.7285 347.3884 15.74333717317820
STARLINK-1502,45764,53.0506,0.0003645,15.477585,420.8056880905815,425.7639245874034,1 45764U 20038AL  26072.00002314  .00039490  00000+0  75399-3 0  9996,2 45764  53.0506 190.2205 0003645   9.9311  99.6867 15.47758500  5896
STARLINK-1470,45772,53.0451,0.0001858,15.28371216,479.40656446197863,481.9553012058195,1 45772U 20038AU  26071.68264696  .00051184  00000+0  18280-2 0  9990,2 45772  53.0451 160.4210 0001858  21.1510 338.9565 15.28371216317535
STARLINK-1482,45773,53.1612,0.0001335,15.30195165,474.31458146728437,476.14443032435884,1 45773U 20038AV  26071.55485156 -.00000302  00000+0  19335-5 0  9995,2 45773  53.1612 177.7098 0001335  96.3280 263.7873 15.30195165317288
STARLINK-1496,45780,53.0498,0.0002961,15.48823602,418.1533162912556,422.1792715019001,1 45780U 20038BC  26071.67529053  .00096755  00000+0  17556-2 0  9997,2 45780  53.0498 163.5273 0002961 229.6191 130.4558 15.48823602317477
STARLINK-1513,45786,53.1612,0.0001054,15.30195043,474.5075252996576,475.9522150358898,1 45786U 20038BJ  26071.69498168  .00004449  00000+0  16227-3 0  9991,2 45786  53.1612 177.1900 0001054  67.6870 292.4242 15.30195043317309
STARLINK-1522,46027,53.0639,0.0001831,15.09175318,537.4521694917476,539.9851220292257,1 46027U 20055A   26071.52938296  .00009917  00000+0  63447-3 0  9993,2 46027  53.0639 113.6790 0001831  68.4570 291.6615 15.09175318309313
STARLINK-1523,46028,53.121,0.0001366,15.22391612,497.6897359004688,499.5684683995769,1 46028U 20055B   26072.00002314  .00117580  00000+0  49601-2 0  9992,2 46028  53.1210 111.0884 0001366  93.7087 126.3529 15.22391612  5798
STARLINK-1526,46029,53.1216,0.0001114,15.22494781,497.5524007441145,499.0844750156739,1 46029U 20055C   26072.00002314  .00125633  00000+0  52770-2 0  9992,2 46029  53.1216 111.0529 0001114 117.7765 161.9589 15.22494781  5794
STARLINK-1555,46032,53.1215,0.0001022,15.21967158,499.20465841764235,500.61053073277344,1 46032U 20055F   26072.00002314  .01086883  00000+0  43524-1 0  9996,2 46032  53.1215 111.1396 0001022  93.1654 218.1077 15.21967158  5791
STARLINK-1556,46033,53.1261,0.0002055,15.2288699,495.72486258092704,498.5506004955896,1 46033U 20055G   26072.00002314  .01061280  00000+0  41448-1 0  9994,2 46033  53.1261 111.0531 0002055  76.2260  22.5629 15.22886990  5790
STARLINK-1557,46034,53.1292,0.0002149,15.2356724,493.614050898972,496.5681643396274,1 46034U 20055H   26072.00002314  .01040532  00000+0  39361-1 0  9993,2 46034  53.1292 110.9733 0002149  82.0880  40.6329 15.23567240  5742
STARLINK-1558,46035,53.1248,6.37e-05,15.22722832,497.19386478351953,498.06983773517004,1 46035U 20055J   26072.00002314  .01194522  00000+0  46417-1 0  9993,2 46035  53.1248 111.1448 0000637  89.3101 258.9705 15.22722832  5590
